$$SOE
2459580.500000000, A.D. 2022-Jan-01 00:00:00.0000, 2.603648137172068E+08, 3.841456387015225E+08, 6.679868762625256E+07,
2459587.500000000, A.D. 2022-Jan-08 00:00:00.0000, 2.517499667960063E+08, 3.902578466313841E+08, 6.637263179426846E+07,
2459594.500000000, A.D. 2022-Jan-15 00:00:00.0000, 2.430167228714277E+08, 3.961865284160875E+08, 6.591536474567425E+07,
2459601.500000000, A.D. 2022-Jan-22 00:00:00.0000, 2.341694105868742E+08, 4.019292529831661E+08, 6.542716056938609E+07,
2459608.500000000, A.D. 2022-Jan-29 00:00:00.0000, 2.252124083133470E+08, 4.074837091066809E+08, 6.490831032020164E+07,
2459615.500000000, A.D. 2022-Feb-05 00:00:00.0000, 2.161501380603985E+08, 4.128477057443276E+08, 6.435912180919918E+07,
2459622.500000000, A.D. 2022-Feb-12 00:00:00.0000, 2.069870615506587E+08, 4.180191711520106E+08, 6.377991909376749E+07,
2459629.500000000, A.D. 2022-Feb-19 00:00:00.0000, 1.977276771416107E+08, 4.229961531448997E+08, 6.317104198288700E+07,
2459636.500000000, A.D. 2022-Feb-26 00:00:00.0000, 1.883765162897672E+08, 4.277768197819082E+08, 6.253284561922601E+07,
2459643.500000000, A.D. 2022-Mar-05 00:00:00.0000, 1.789381397229578E+08, 4.323594598580763E+08, 6.186570007366487E+07,
2459650.500000000, A.D. 2022-Mar-12 00:00:00.0000, 1.694171335492359E+08, 4.367424831412659E+08, 6.116998992724118E+07,
2459657.500000000, A.D. 2022-Mar-19 00:00:00.0000, 1.598181053801118E+08, 4.409244203837238E+08, 6.044611383700314E+07,
2459664.500000000, A.D. 2022-Mar-26 00:00:00.0000, 1.501456804969756E+08, 4.449039231054376E+08, 5.969448408395863E+07,
2459671.500000000, A.D. 2022-Apr-02 00:00:00.0000, 1.404044981346933E+08, 4.486797630966611E+08, 5.891552609310484E+07,
2459678.500000000, A.D. 2022-Apr-09 00:00:00.0000, 1.305992081603261E+08, 4.522508316481948E+08, 5.810967790183854E+07,
2459685.500000000, A.D. 2022-Apr-16 00:00:00.0000, 1.207344685100408E+08, 4.556161391680466E+08, 5.727738959842190E+07,
2459692.500000000, A.D. 2022-Apr-23 00:00:00.0000, 1.108149421218911E+08, 4.587748162729930E+08, 5.641912293633389E+07,
2459699.500000000, A.D. 2022-Apr-30 00:00:00.0000, 1.008452914994777E+08, 4.617261141117412E+08, 5.553535111301479E+07,
2459706.500000000, A.D. 2022-May-07 00:00:00.0000, 9.083017397210474E+07, 4.644694019503605E+08, 5.462655827185836E+07,
2459713.500000000, A.D. 2022-May-14 00:00:00.0000, 8.077423904591011E+07, 4.670041650653554E+08, 5.369323884970951E+07,
2459720.500000000, A.D. 2022-May-21 00:00:00.0000, 7.068212582043523E+07, 4.693300037077900E+08, 5.273589701898870E+07,
2459727.500000000, A.D. 2022-May-28 00:00:00.0000, 6.055845999570799E+07, 4.714466321836767E+08, 5.175504619077694E+07,
2459734.500000000, A.D. 2022-Jun-04 00:00:00.0000, 5.040785075031480E+07, 4.733538777426739E+08, 5.075120852880457E+07,
2459741.500000000, A.D. 2022-Jun-11 00:00:00.0000, 4.023488763838175E+07, 4.750516792825867E+08, 4.972491446220252E+07,
2459748.500000000, A.D. 2022-Jun-18 00:00:00.0000, 3.004413754715654E+07, 4.765400858884147E+08, 4.867670219549039E+07,
2459755.500000000, A.D. 2022-Jun-25 00:00:00.0000, 1.984014174728998E+07, 4.778192551783207E+08, 4.760711721131274E+07,
2459762.500000000, A.D. 2022-Jul-02 00:00:00.0000, 9.627413172113463E+06, 4.788894513964214E+08, 4.651671174918374E+07,
2459769.500000000, A.D. 2022-Jul-09 00:00:00.0000, -5.895656820175826E+05, 4.797510434353070E+08, 4.540604423987052E+07,
2459776.500000000, A.D. 2022-Jul-16 00:00:00.0000, -1.080634428781202E+07, 4.804045038777996E+08, 4.427567878997746E+07,
2459783.500000000, A.D. 2022-Jul-23 00:00:00.0000, -2.101850724734338E+07, 4.808504091419181E+08, 4.312618492554849E+07,
2459790.500000000, A.D. 2022-Jul-30 00:00:00.0000, -3.122167899451417E+07, 4.810894373784344E+08, 4.195813731343576E+07,
2459797.500000000, A.D. 2022-Aug-06 00:00:00.0000, -4.141152644124261E+07, 4.811223647739097E+08, 4.077211518419507E+07,
2459804.500000000, A.D. 2022-Aug-13 00:00:00.0000, -5.158376038934941E+07, 4.809500630205067E+08, 3.956870175795355E+07,
2459811.500000000, A.D. 2022-Aug-20 00:00:00.0000, -6.173413727571003E+07, 4.805734974531301E+08, 3.834848377647549E+07,
2459818.500000000, A.D. 2022-Aug-27 00:00:00.0000, -7.185846118257745E+07, 4.799937251300800E+08, 3.711205107625705E+07,
2459825.500000000, A.D. 2022-Sep-03 00:00:00.0000, -8.195258586650559E+07, 4.792118927504258E+08, 3.585999617154515E+07,
2459832.500000000, A.D. 2022-Sep-10 00:00:00.0000, -9.201241671753523E+07, 4.782292344371127E+08, 3.459291384176794E+07,
2459839.500000000, A.D. 2022-Sep-17 00:00:00.0000, -1.020339126206633E+08, 4.770470693900716E+08, 3.331140072127026E+07,
2459846.500000000, A.D. 2022-Sep-24 00:00:00.0000, -1.120130876600192E+08, 4.756667993644673E+08, 3.201605488217151E+07,
2459853.500000000, A.D. 2022-Oct-01 00:00:00.0000, -1.219460124263468E+08, 4.740899059571187E+08, 3.070747538674846E+07,
2459860.500000000, A.D. 2022-Oct-08 00:00:00.0000, -1.318288145213822E+08, 4.723179482278584E+08, 2.938626181469747E+07,
2459867.500000000, A.D. 2022-Oct-15 00:00:00.0000, -1.416576791922081E+08, 4.703525618599077E+08, 2.805301394866639E+07,
2459874.500000000, A.D. 2022-Oct-22 00:00:00.0000, -1.514288522775147E+08, 4.681954581795751E+08, 2.670833168029246E+07,
2459881.500000000, A.D. 2022-Oct-29 00:00:00.0000, -1.611386429687206E+08, 4.658484204430683E+08, 2.535281469542670E+07,
2459888.500000000, A.D. 2022-Nov-05 00:00:00.0000, -1.707834242900578E+08, 4.633133001343547E+08, 2.398706196996531E+07,
2459895.500000000, A.D. 2022-Nov-12 00:00:00.0000, -1.803596332650105E+08, 4.605920145464476E+08, 2.261167135996968E+07,
2459902.500000000, A.D. 2022-Nov-19 00:00:00.0000, -1.898637714899105E+08, 4.576865446955557E+08, 2.122723927389878E+07,
2459909.500000000, A.D. 2022-Nov-26 00:00:00.0000, -1.992924058544401E+08, 4.545989331733956E+08, 1.983436037031472E+07,
2459916.500000000, A.D. 2022-Dec-03 00:00:00.0000, -2.086421692453797E+08, 4.513312819288948E+08, 1.843362726482680E+07,
2459923.500000000, A.D. 2022-Dec-10 00:00:00.0000, -2.179097611905104E+08, 4.478857500008059E+08, 1.702563024359030E+07,
2459930.500000000, A.D. 2022-Dec-17 00:00:00.0000, -2.270919484203682E+08, 4.442645511789715E+08, 1.561095697901976E+07,
2459937.500000000, A.D. 2022-Dec-24 00:00:00.0000, -2.361855652408316E+08, 4.404699515309364E+08, 1.419019223227948E+07,
2459944.500000000, A.D. 2022-Dec-31 00:00:00.0000, -2.451875133612888E+08, 4.365042669036731E+08, 1.276391751850972E+07,
2459951.500000000, A.D. 2023-Jan-07 00:00:00.0000, -2.540947610583160E+08, 4.323698613650005E+08, 1.133271080214065E+07,
2459958.500000000, A.D. 2023-Jan-14 00:00:00.0000, -2.629043436446461E+08, 4.280691470842929E+08, 9.897146443205476E+06,
2459965.500000000, A.D. 2023-Jan-21 00:00:00.0000, -2.716133658894696E+08, 4.236045824820021E+08, 8.457795194363356E+06,
2459972.500000000, A.D. 2023-Jan-28 00:00:00.0000, -2.802190027232950E+08, 4.189786684518843E+08, 7.015223896236449E+06,
2459979.500000000, A.D. 2023-Feb-04 00:00:00.0000, -2.887184984397482E+08, 4.141939456841021E+08, 5.569995137636840E+06,
2459986.500000000, A.D. 2023-Feb-11 00:00:00.0000, -2.971091661930606E+08, 4.092529928980084E+08, 4.122667029413909E+06,
2459993.500000000, A.D. 2023-Feb-18 00:00:00.0000, -3.053883878569856E+08, 4.041584251630659E+08, 2.673793030392706E+06,
2460000.500000000, A.D. 2023-Feb-25 00:00:00.0000, -3.135536139849923E+08, 3.989128921472700E+08, 1.223921788082093E+06,
2460007.500000000, A.D. 2023-Mar-04 00:00:00.0000, -3.216023637723507E+08, 3.935190763132585E+08, -2.264030136836469E+05,
2460014.500000000, A.D. 2023-Mar-11 00:00:00.0000, -3.295322249941692E+08, 3.879796910641317E+08, -1.676642802769214E+06,
2460021.500000000, A.D. 2023-Mar-18 00:00:00.0000, -3.373408538747887E+08, 3.822974787909745E+08, -3.126264270821989E+06,
2460028.500000000, A.D. 2023-Mar-25 00:00:00.0000, -3.450259746874611E+08, 3.764752087761395E+08, -4.574739551968575E+06,
2460035.500000000, A.D. 2023-Apr-01 00:00:00.0000, -3.525853786618762E+08, 3.705156753466697E+08, -6.021546434974387E+06,
2460042.500000000, A.D. 2023-Apr-08 00:00:00.0000, -3.600169228171749E+08, 3.644216975037408E+08, -7.466168452438578E+06,
2460049.500000000, A.D. 2023-Apr-15 00:00:00.0000, -3.673185310596040E+08, 3.581961189233636E+08, -8.908094723300651E+06,
2460056.500000000, A.D. 2023-Apr-22 00:00:00.0000, -3.744881957358518E+08, 3.518418052769626E+08, -1.034681996414085E+07,
2460063.500000000, A.D. 2023-Apr-29 00:00:00.0000, -3.815239769070432E+08, 3.453616411225315E+08, -1.178184473590370E+07,
2460070.500000000, A.D. 2023-May-06 00:00:00.0000, -3.884240011063692E+08, 3.387585281458386E+08, -1.321267561914603E+07,
2460077.500000000, A.D. 2023-May-13 00:00:00.0000, -3.951864605604544E+08, 3.320353838581604E+08, -1.463882530160779E+07,
2460084.500000000, A.D. 2023-May-20 00:00:00.0000, -4.018096126431347E+08, 3.251951402596691E+08, -1.605981264015333E+07,
2460091.500000000, A.D. 2023-May-27 00:00:00.0000, -4.082917793708508E+08, 3.182407424393926E+08, -1.747516271777141E+07,
2460098.500000000, A.D. 2023-Jun-03 00:00:00.0000, -4.146313468844211E+08, 3.111751471382749E+08, -1.888440689941500E+07,
2460105.500000000, A.D. 2023-Jun-10 00:00:00.0000, -4.208267648952432E+08, 3.040013212619610E+08, -2.028708289060722E+07,
2460112.500000000, A.D. 2023-Jun-17 00:00:00.0000, -4.268765460083305E+08, 2.967222402831980E+08, -2.168273481244971E+07,
2460119.500000000, A.D. 2023-Jun-24 00:00:00.0000, -4.327792646034245E+08, 2.893408865890437E+08, -2.307091331831507E+07,
2460126.500000000, A.D. 2023-Jul-01 00:00:00.0000, -4.385335550223327E+08, 2.818602486001834E+08, -2.445117570816953E+07,
2460133.500000000, A.D. 2023-Jul-08 00:00:00.0000, -4.441381107383544E+08, 2.742833214836422E+08, -2.582308582024036E+07,
2460140.500000000, A.D. 2023-Jul-15 00:00:00.0000, -4.495916857867178E+08, 2.666131066291660E+08, -2.718621381468834E+07,
2460147.500000000, A.D. 2023-Jul-22 00:00:00.0000, -4.548930949351237E+08, 2.588526088547448E+08, -2.854013625703812E+07,
$$EOE